{
  "type": "FeatureCollection",
  "features": [
    {
      "type": "Feature",
      "properties": {
        "norad_id": 40362,
        "name": "YAOGAN-26",
        "group": "resource",
        "lat": 41.980182745036494,
        "lon": -21.436321939008813,
        "alt_km": 440.7472016529755,
        "timestamp": "2025-12-10T04:57:29.262786+00:00",
        "meta_object_name": "YAOGAN-26",
        "meta_object_id": "2014-088A",
        "meta_epoch": "2025-12-09T20:58:23.674368",
        "meta_mean_motion": 15.39139534,
        "meta_eccentricity": 0.0006678,
        "meta_inclination": 97.0646,
        "meta_ra_of_asc_node": 344.6497,
        "meta_arg_of_pericenter": 37.0042,
        "meta_mean_anomaly": 323.1664,
        "meta_ephemeris_type": 0,
        "meta_classification_type": "U",
        "meta_norad_cat_id": 40362,
        "meta_element_set_no": 999,
        "meta_rev_at_epoch": 60850,
        "meta_bstar": 0.00075155,
        "meta_mean_motion_dot": 0.00029168,
        "meta_mean_motion_ddot": 0,
        "tle_line1": "1 40362U 14088A   25343.87388512  .00029168  00000+0  75155-3 0  9996",
        "tle_line2": "2 40362  97.0646 344.6497 0006678  37.0042 323.1664 15.39139534608506"
      },
      "geometry": {
        "type": "Point",
        "coordinates": [
          -21.436321939008813,
          41.980182745036494
        ]
      }
    },
    {
      "type": "Feature",
      "properties": {
        "norad_id": 40376,
        "name": "SMAP",
        "group": "resource",
        "lat": -78.66354661756704,
        "lon": 123.49113387148194,
        "alt_km": 690.5918338281617,
        "timestamp": "2025-12-10T04:57:29.262797+00:00",
        "meta_object_name": "SMAP",
        "meta_object_id": "2015-003A",
        "meta_epoch": "2025-12-09T19:33:31.818240",
        "meta_mean_motion": 14.63339713,
        "meta_eccentricity": 0.0001204,
        "meta_inclination": 98.1291,
        "meta_ra_of_asc_node": 348.5809,
        "meta_arg_of_pericenter": 88.6814,
        "meta_mean_anomaly": 271.4526,
        "meta_ephemeris_type": 0,
        "meta_classification_type": "U",
        "meta_norad_cat_id": 40376,
        "meta_element_set_no": 999,
        "meta_rev_at_epoch": 57992,
        "meta_bstar": 0.00020688,
        "meta_mean_motion_dot": 1.021e-05,
        "meta_mean_motion_ddot": 0,
        "tle_line1": "1 40376U 15003A   25343.81495160  .00001021  00000+0  20688-3 0  9990",
        "tle_line2": "2 40376  98.1291 348.5809 0001204  88.6814 271.4526 14.63339713579920"
      },
      "geometry": {
        "type": "Point",
        "coordinates": [
          123.49113387148194,
          -78.66354661756704
        ]
      }
    },
    {
      "type": "Feature",
      "properties": {
        "norad_id": 40536,
        "name": "KOMPSAT-3A",
        "group": "resource",
        "lat": -58.65180412840096,
        "lon": -28.789304271350904,
        "alt_km": 445.12554840707526,
        "timestamp": "2025-12-10T04:57:29.262807+00:00",
        "meta_object_name": "KOMPSAT-3A",
        "meta_object_id": "2015-014A",
        "meta_epoch": "2025-12-09T21:26:15.491904",
        "meta_mean_motion": 15.43780872,
        "meta_eccentricity": 0.000458,
        "meta_inclination": 97.6792,
        "meta_ra_of_asc_node": 318.0827,
        "meta_arg_of_pericenter": 132.6662,
        "meta_mean_anomaly": 227.4972,
        "meta_ephemeris_type": 0,
        "meta_classification_type": "U",
        "meta_norad_cat_id": 40536,
        "meta_element_set_no": 999,
        "meta_rev_at_epoch": 59251,
        "meta_bstar": 0.00064975,
        "meta_mean_motion_dot": 0.00029386,
        "meta_mean_motion_ddot": 0,
        "tle_line1": "1 40536U 15014A   25343.89323486  .00029386  00000+0  64975-3 0  9990",
        "tle_line2": "2 40536  97.6792 318.0827 0004580 132.6662 227.4972 15.43780872592512"
      },
      "geometry": {
        "type": "Point",
        "coordinates": [
          -28.789304271350904,
          -58.65180412840096
        ]
      }
    },
    {
      "type": "Feature",
      "properties": {
        "norad_id": 40697,
        "name": "SENTINEL-2A",
        "group": "resource",
        "lat": 65.0563014662423,
        "lon": 37.85872711890142,
        "alt_km": 781.9066681369459,
        "timestamp": "2025-12-10T04:57:29.262817+00:00",
        "meta_object_name": "SENTINEL-2A",
        "meta_object_id": "2015-028A",
        "meta_epoch": "2025-12-09T20:15:25.147584",
        "meta_mean_motion": 14.30824775,
        "meta_eccentricity": 0.000105,
        "meta_inclination": 98.5692,
        "meta_ra_of_asc_node": 56.4177,
        "meta_arg_of_pericenter": 89.8448,
        "meta_mean_anomaly": 270.2855,
        "meta_ephemeris_type": 0,
        "meta_classification_type": "U",
        "meta_norad_cat_id": 40697,
        "meta_element_set_no": 999,
        "meta_rev_at_epoch": 54665,
        "meta_bstar": 3.1539e-05,
        "meta_mean_motion_dot": 3.9e-07,
        "meta_mean_motion_ddot": 0,
        "tle_line1": "1 40697U 15028A   25343.84404106  .00000039  00000+0  31539-4 0  9992",
        "tle_line2": "2 40697  98.5692  56.4177 0001050  89.8448 270.2855 14.30824775546650"
      },
      "geometry": {
        "type": "Point",
        "coordinates": [
          37.85872711890142,
          65.0563014662423
        ]
      }
    },
    {
      "type": "Feature",
      "properties": {
        "norad_id": 40701,
        "name": "GAOFEN-8",
        "group": "resource",
        "lat": -32.93654632302813,
        "lon": -22.799061624128584,
        "alt_km": 453.8158828588703,
        "timestamp": "2025-12-10T04:57:29.262828+00:00",
        "meta_object_name": "GAOFEN-8",
        "meta_object_id": "2015-030A",
        "meta_epoch": "2025-12-09T18:40:07.690656",
        "meta_mean_motion": 15.38398709,
        "meta_eccentricity": 0.0011461,
        "meta_inclination": 97.6912,
        "meta_ra_of_asc_node": 161.7743,
        "meta_arg_of_pericenter": 148.5648,
        "meta_mean_anomaly": 211.6283,
        "meta_ephemeris_type": 0,
        "meta_classification_type": "U",
        "meta_norad_cat_id": 40701,
        "meta_element_set_no": 999,
        "meta_rev_at_epoch": 58225,
        "meta_bstar": 0.00076563,
        "meta_mean_motion_dot": 0.00029042,
        "meta_mean_motion_ddot": 0,
        "tle_line1": "1 40701U 15030A   25343.77786679  .00029042  00000+0  76563-3 0  9991",
        "tle_line2": "2 40701  97.6912 161.7743 0011461 148.5648 211.6283 15.38398709582254"
      },
      "geometry": {
        "type": "Point",
        "coordinates": [
          -22.799061624128584,
          -32.93654632302813
        ]
      }
    },
    {
      "type": "Feature",
      "properties": {
        "norad_id": 40718,
        "name": "CARBONITE 1 (CBNT-1)",
        "group": "resource",
        "lat": -66.59818035121968,
        "lon": -176.56708623539572,
        "alt_km": 630.1444886055351,
        "timestamp": "2025-12-10T04:57:29.262837+00:00",
        "meta_object_name": "CARBONITE 1 (CBNT-1)",
        "meta_object_id": "2015-032D",
        "meta_epoch": "2025-12-09T19:32:46.771872",
        "meta_mean_motion": 14.82725798,
        "meta_eccentricity": 0.0014146,
        "meta_inclination": 97.6405,
        "meta_ra_of_asc_node": 164.9881,
        "meta_arg_of_pericenter": 190.7867,
        "meta_mean_anomaly": 169.3046,
        "meta_ephemeris_type": 0,
        "meta_classification_type": "U",
        "meta_norad_cat_id": 40718,
        "meta_element_set_no": 999,
        "meta_rev_at_epoch": 56127,
        "meta_bstar": 0.00069043,
        "meta_mean_motion_dot": 5.535e-05,
        "meta_mean_motion_ddot": 0,
        "tle_line1": "1 40718U 15032D   25343.81443023  .00005535  00000+0  69043-3 0  9995",
        "tle_line2": "2 40718  97.6405 164.9881 0014146 190.7867 169.3046 14.82725798561277"
      },
      "geometry": {
        "type": "Point",
        "coordinates": [
          -176.56708623539572,
          -66.59818035121968
        ]
      }
    },
    {
      "type": "Feature",
      "properties": {
        "norad_id": 40878,
        "name": "YAOGAN-27",
        "group": "resource",
        "lat": 65.76389133695696,
        "lon": -49.38437413297433,
        "alt_km": 1197.3899496498689,
        "timestamp": "2025-12-10T04:57:29.262848+00:00",
        "meta_object_name": "YAOGAN-27",
        "meta_object_id": "2015-040A",
        "meta_epoch": "2025-12-09T21:18:59.238432",
        "meta_mean_motion": 13.16059313,
        "meta_eccentricity": 0.0007657,
        "meta_inclination": 100.1008,
        "meta_ra_of_asc_node": 333.6365,
        "meta_arg_of_pericenter": 293.7916,
        "meta_mean_anomaly": 66.2394,
        "meta_ephemeris_type": 0,
        "meta_classification_type": "U",
        "meta_norad_cat_id": 40878,
        "meta_element_set_no": 999,
        "meta_rev_at_epoch": 49276,
        "meta_bstar": 0.00013186,
        "meta_mean_motion_dot": 8e-08,
        "meta_mean_motion_ddot": 0,
        "tle_line1": "1 40878U 15040A   25343.88818563  .00000008  00000+0  13186-3 0  9990",
        "tle_line2": "2 40878 100.1008 333.6365 0007657 293.7916  66.2394 13.16059313492760"
      },
      "geometry": {
        "type": "Point",
        "coordinates": [
          -49.38437413297433,
          65.76389133695696
        ]
      }
    }
  ]
}